start=new Date('2021-11-01T00:00:00.000Z').valueOf();
sats=[{"FILE":"3194950","MEAN_MOTION":"15.06400056","OBJECT_NAME":"STARLINK-2586","TIME_SYSTEM":"UTC","CENTER_NAME":"EARTH","ELEMENT_SET_NO":"999","LAUNCH_DATE":"2021-05-04","REF_FRAME":"TEME","TLE_LINE1":"1 48390U 21038AP  21304.64094763  .00000489  00000-0  51705-4 0  9990","BSTAR":"0.00005170500000","DECAY_DATE":null,"PERIAPSIS":"546.155","OBJECT_ID":"2021-038AP","PERIOD":"95.592","SEMIMAJOR_AXIS":"6925.348","INCLINATION":"53.0548","RCS_SIZE":"LARGE","REV_AT_EPOCH":"2886","OBJECT_TYPE":"PAYLOAD","SITE":"AFETR","MEAN_ELEMENT_THEORY":"SGP4","CLASSIFICATION_TYPE":"U","APOAPSIS":"548.272","EPHEMERIS_TYPE":"0","COUNTRY_CODE":"US","TLE_LINE2":"2 48390  53.0548 279.6189 0001529  70.8447 289.2707 15.06400056 28866","ARG_OF_PERICENTER":"70.8447","RA_OF_ASC_NODE":"279.6189","ECCENTRICITY":"0.00015290","MEAN_MOTION_DOT":"0.00000489","MEAN_ANOMALY":"289.2707","NORAD_CAT_ID":"48390","EPOCH":"2021-10-31T15:22:57.875232","MEAN_MOTION_DDOT":"0.0000000000000","GP_ID":"188607334"},{"TIME_SYSTEM":"UTC","OBJECT_NAME":"STARLINK-2607","CENTER_NAME":"EARTH","ELEMENT_SET_NO":"999","FILE":"3194950","MEAN_MOTION":"15.06398056","REF_FRAME":"TEME","TLE_LINE1":"1 48391U 21038AQ  21304.63726454 -.00001172  00000-0 -59781-4 0  9993","LAUNCH_DATE":"2021-05-04","PERIAPSIS":"546.350","DECAY_DATE":null,"BSTAR":"-0.00005978100000","SEMIMAJOR_AXIS":"6925.355","RCS_SIZE":"LARGE","INCLINATION":"53.0554","PERIOD":"95.592","OBJECT_ID":"2021-038AQ","OBJECT_TYPE":"PAYLOAD","MEAN_ELEMENT_THEORY":"SGP4","SITE":"AFETR","REV_AT_EPOCH":"2886","APOAPSIS":"548.089","EPHEMERIS_TYPE":"0","COUNTRY_CODE":"US","CLASSIFICATION_TYPE":"U","RA_OF_ASC_NODE":"279.6334","ECCENTRICITY":"0.00012560","ARG_OF_PERICENTER":"81.1688","TLE_LINE2":"2 48391  53.0554 279.6334 0001256  81.1688 278.9443 15.06398056 28863","NORAD_CAT_ID":"48391","GP_ID":"188606589","MEAN_MOTION_DDOT":"0.0000000000000","EPOCH":"2021-10-31T15:17:39.656256","MEAN_ANOMALY":"278.9443","MEAN_MOTION_DOT":"-0.00001172"},{"COUNTRY_CODE":"US","EPHEMERIS_TYPE":"0","APOAPSIS":"547.964","CLASSIFICATION_TYPE":"U","SITE":"AFETR","MEAN_ELEMENT_THEORY":"SGP4","OBJECT_TYPE":"PAYLOAD","REV_AT_EPOCH":"2886","GP_ID":"188607340","MEAN_MOTION_DDOT":"0.0000000000000","EPOCH":"2021-10-31T15:12:20.924064","NORAD_CAT_ID":"48392","MEAN_ANOMALY":"281.2716","MEAN_MOTION_DOT":"0.00001134","ECCENTRICITY":"0.00010980","RA_OF_ASC_NODE":"279.6488","ARG_OF_PERICENTER":"78.8397","TLE_LINE2":"2 48392  53.0557 279.6488 0001098  78.8397 281.2716 15.06403155 28868","TLE_LINE1":"1 48392U 21038AR  21304.63357551  .00001134  00000-0  94974-4 0  9991","REF_FRAME":"TEME","LAUNCH_DATE":"2021-05-04","ELEMENT_SET_NO":"999","CENTER_NAME":"EARTH","TIME_SYSTEM":"UTC","OBJECT_NAME":"STARLINK-2605","MEAN_MOTION":"15.06403155","FILE":"3194950","RCS_SIZE":"LARGE","INCLINATION":"53.0557","SEMIMAJOR_AXIS":"6925.339","PERIOD":"95.592","OBJECT_ID":"2021-038AR","PERIAPSIS":"546.443","DECAY_DATE":null,"BSTAR":"0.00009497400000"},{"MEAN_MOTION_DOT":"0.00000804","MEAN_ANOMALY":"276.7538","MEAN_MOTION_DDOT":"0.0000000000000","EPOCH":"2021-10-31T15:07:02.668800","GP_ID":"188607591","NORAD_CAT_ID":"48393","TLE_LINE2":"2 48393  53.0565 279.6681 0001601  83.3633 276.7538 15.06401066 28867","ARG_OF_PERICENTER":"83.3633","ECCENTRICITY":"0.00016010","RA_OF_ASC_NODE":"279.6681","CLASSIFICATION_TYPE":"U","EPHEMERIS_TYPE":"0","COUNTRY_CODE":"US","APOAPSIS":"548.319","REV_AT_EPOCH":"2886","SITE":"AFETR","MEAN_ELEMENT_THEORY":"SGP4","OBJECT_TYPE":"PAYLOAD","OBJECT_ID":"2021-038AS","PERIOD":"95.592","INCLINATION":"53.0565","RCS_SIZE":"LARGE","SEMIMAJOR_AXIS":"6925.345","BSTAR":"0.00007285700000","DECAY_DATE":null,"PERIAPSIS":"546.102","LAUNCH_DATE":"2021-05-04","TLE_LINE1":"1 48393U 21038AS  21304.62989200  .00000804  00000-0  72857-4 0  9992","REF_FRAME":"TEME","MEAN_MOTION":"15.06401066","FILE":"3194950","CENTER_NAME":"EARTH","ELEMENT_SET_NO":"999","OBJECT_NAME":"STARLINK-2602","TIME_SYSTEM":"UTC"},{"RA_OF_ASC_NODE":"279.6794","ECCENTRICITY":"0.00014740","ARG_OF_PERICENTER":"75.5865","TLE_LINE2":"2 48394  53.0562 279.6794 0001474  75.5865 284.5288 15.06397758 28869","NORAD_CAT_ID":"48394","GP_ID":"188607835","MEAN_MOTION_DDOT":"0.0000000000000","EPOCH":"2021-10-31T15:01:44.152608","MEAN_ANOMALY":"284.5288","MEAN_MOTION_DOT":"-0.00001175","OBJECT_TYPE":"PAYLOAD","MEAN_ELEMENT_THEORY":"SGP4","SITE":"AFETR","REV_AT_EPOCH":"2886","APOAPSIS":"548.241","EPHEMERIS_TYPE":"0","COUNTRY_CODE":"US","CLASSIFICATION_TYPE":"U","PERIAPSIS":"546.200","DECAY_DATE":null,"BSTAR":"-0.00006002600000","SEMIMAJOR_AXIS":"6925.355","RCS_SIZE":"LARGE","INCLINATION":"53.0562","PERIOD":"95.592","OBJECT_ID":"2021-038AT","TIME_SYSTEM":"UTC","OBJECT_NAME":"STARLINK-2573","CENTER_NAME":"EARTH","ELEMENT_SET_NO":"999","FILE":"3194950","MEAN_MOTION":"15.06397758","REF_FRAME":"TEME","TLE_LINE1":"1 48394U 21038AT  21304.62620547 -.00001175  00000-0 -60026-4 0  9998","LAUNCH_DATE":"2021-05-04"},{"SEMIMAJOR_AXIS":"6925.318","RCS_SIZE":"LARGE","INCLINATION":"53.0554","PERIOD":"95.592","OBJECT_ID":"2021-038AU","PERIAPSIS":"546.247","DECAY_DATE":null,"BSTAR":"0.00008873500000","REF_FRAME":"TEME","TLE_LINE1":"1 48395U 21038AU  21304.34512250  .00001041  00000-0  88735-4 0  9996","LAUNCH_DATE":"2021-05-04","TIME_SYSTEM":"UTC","OBJECT_NAME":"STARLINK-2574","ELEMENT_SET_NO":"999","CENTER_NAME":"EARTH","FILE":"3194431","MEAN_MOTION":"15.06409915","NORAD_CAT_ID":"48395","GP_ID":"188572690","MEAN_MOTION_DDOT":"0.0000000000000","EPOCH":"2021-10-31T08:16:58.584000","MEAN_ANOMALY":"277.6150","MEAN_MOTION_DOT":"0.00001041","RA_OF_ASC_NODE":"280.9400","ECCENTRICITY":"0.00013520","ARG_OF_PERICENTER":"82.4993","TLE_LINE2":"2 48395  53.0554 280.9400 0001352  82.4993 277.6150 15.06409915 28820","APOAPSIS":"548.119","COUNTRY_CODE":"US","EPHEMERIS_TYPE":"0","CLASSIFICATION_TYPE":"U","OBJECT_TYPE":"PAYLOAD","MEAN_ELEMENT_THEORY":"SGP4","SITE":"AFETR","REV_AT_EPOCH":"2882"},{"APOAPSIS":"551.154","COUNTRY_CODE":"US","EPHEMERIS_TYPE":"0","CLASSIFICATION_TYPE":"U","OBJECT_TYPE":"PAYLOAD","SITE":"AFETR","MEAN_ELEMENT_THEORY":"SGP4","REV_AT_EPOCH":"2888","NORAD_CAT_ID":"48396","EPOCH":"2021-10-31T18:07:32.684160","MEAN_MOTION_DDOT":"0.0000000000000","GP_ID":"188606840","MEAN_MOTION_DOT":"-0.00017577","MEAN_ANOMALY":"221.4934","RA_OF_ASC_NODE":"279.0944","ECCENTRICITY":"0.00053890","TLE_LINE2":"2 48396  53.0550 279.0944 0005389 138.6464 221.4934 15.06332101 28885","ARG_OF_PERICENTER":"138.6464","REF_FRAME":"TEME","TLE_LINE1":"1 48396U 21038AV  21304.75523940 -.00017577  00000-0 -11657-2 0  9990","LAUNCH_DATE":"2021-05-04","OBJECT_NAME":"STARLINK-2575","TIME_SYSTEM":"UTC","ELEMENT_SET_NO":"999","CENTER_NAME":"EARTH","FILE":"3194950","MEAN_MOTION":"15.06332101","SEMIMAJOR_AXIS":"6925.557","INCLINATION":"53.0550","RCS_SIZE":"LARGE","OBJECT_ID":"2021-038AV","PERIOD":"95.596","DECAY_DATE":null,"PERIAPSIS":"543.689","BSTAR":"-0.00116570000000"},{"SEMIMAJOR_AXIS":"6925.348","RCS_SIZE":"LARGE","INCLINATION":"53.0567","PERIOD":"95.592","OBJECT_ID":"2021-038AW","PERIAPSIS":"546.260","DECAY_DATE":null,"BSTAR":"0.00001494600000","REF_FRAME":"TEME","TLE_LINE1":"1 48397U 21038AW  21304.22075473 -.00000059  00000-0  14946-4 0  9998","LAUNCH_DATE":"2021-05-04","TIME_SYSTEM":"UTC","OBJECT_NAME":"STARLINK-2590","CENTER_NAME":"EARTH","ELEMENT_SET_NO":"999","FILE":"3194431","MEAN_MOTION":"15.06400257","NORAD_CAT_ID":"48397","GP_ID":"188573660","MEAN_MOTION_DDOT":"0.0000000000000","EPOCH":"2021-10-31T05:17:53.208672","MEAN_ANOMALY":"281.7055","MEAN_MOTION_DOT":"-0.00000059","RA_OF_ASC_NODE":"281.5065","ECCENTRICITY":"0.00013760","ARG_OF_PERICENTER":"78.4089","TLE_LINE2":"2 48397  53.0567 281.5065 0001376  78.4089 281.7055 15.06400257 28805","APOAPSIS":"548.166","EPHEMERIS_TYPE":"0","COUNTRY_CODE":"US","CLASSIFICATION_TYPE":"U","OBJECT_TYPE":"PAYLOAD","SITE":"AFETR","MEAN_ELEMENT_THEORY":"SGP4","REV_AT_EPOCH":"2880"},{"NORAD_CAT_ID":"48398","GP_ID":"188545476","MEAN_MOTION_DDOT":"0.0000000000000","EPOCH":"2021-10-31T09:59:11.496192","MEAN_ANOMALY":"278.3040","MEAN_MOTION_DOT":"-0.00000370","RA_OF_ASC_NODE":"280.6247","ECCENTRICITY":"0.00014160","ARG_OF_PERICENTER":"81.8109","TLE_LINE2":"2 48398  53.0557 280.6247 0001416  81.8109 278.3040 15.06400883 28208","APOAPSIS":"548.191","COUNTRY_CODE":"US","EPHEMERIS_TYPE":"0","CLASSIFICATION_TYPE":"U","OBJECT_TYPE":"PAYLOAD","MEAN_ELEMENT_THEORY":"SGP4","SITE":"AFETR","REV_AT_EPOCH":"2820","SEMIMAJOR_AXIS":"6925.346","RCS_SIZE":"LARGE","INCLINATION":"53.0557","PERIOD":"95.592","OBJECT_ID":"2021-038AX","PERIAPSIS":"546.230","DECAY_DATE":null,"BSTAR":"-0.00000593330000","REF_FRAME":"TEME","TLE_LINE1":"1 48398U 21038AX  21304.41610528 -.00000370  00000-0 -59333-5 0  9993","LAUNCH_DATE":"2021-05-04","TIME_SYSTEM":"UTC","OBJECT_NAME":"STARLINK-2588","ELEMENT_SET_NO":"999","CENTER_NAME":"EARTH","FILE":"3194231","MEAN_MOTION":"15.06400883"},{"RA_OF_ASC_NODE":"280.6486","ECCENTRICITY":"0.00013110","ARG_OF_PERICENTER":"80.6575","TLE_LINE2":"2 48399  53.0568 280.6486 0001311  80.6575 279.4563 15.06402896 28820","NORAD_CAT_ID":"48399","GP_ID":"188573191","EPOCH":"2021-10-31T09:53:52.826208","MEAN_MOTION_DDOT":"0.0000000000000","MEAN_ANOMALY":"279.4563","MEAN_MOTION_DOT":"0.00001918","OBJECT_TYPE":"PAYLOAD","SITE":"AFETR","MEAN_ELEMENT_THEORY":"SGP4","REV_AT_EPOCH":"2882","APOAPSIS":"548.113","COUNTRY_CODE":"US","EPHEMERIS_TYPE":"0","CLASSIFICATION_TYPE":"U","PERIAPSIS":"546.297","DECAY_DATE":null,"BSTAR":"0.00014759000000","SEMIMAJOR_AXIS":"6925.340","RCS_SIZE":"LARGE","INCLINATION":"53.0568","PERIOD":"95.592","OBJECT_ID":"2021-038AY","TIME_SYSTEM":"UTC","OBJECT_NAME":"STARLINK-2587","CENTER_NAME":"EARTH","ELEMENT_SET_NO":"999","FILE":"3194431","MEAN_MOTION":"15.06402896","REF_FRAME":"TEME","TLE_LINE1":"1 48399U 21038AY  21304.41241697  .00001918  00000-0  14759-3 0  9999","LAUNCH_DATE":"2021-05-04"}];
